ONEWEB-0379             
1 49305U 21090AC  25229.78460235  .00000233  00000+0  59349-3 0  9998
2 49305  87.9085 350.0890 0001992  97.1739 262.9617 13.14501591189003
ONEWEB-0380             
1 49306U 21090AD  25229.84212332 -.00000034  00000+0 -11701-3 0  9990
2 49306  87.9257   5.2797 0001866 103.7138 256.4202 13.19725005187691
ONEWEB-0381             
1 49307U 21090AE  25229.52510700  .00000070  00000+0  13981-3 0  9996
2 49307  87.9304 334.9555 0002133 105.1963 254.9406 13.20770724189746
ONEWEB-0382             
1 49308U 21090AF  25229.58822854  .00000021  00000+0  19639-4 0  9992
2 49308  87.9300 334.9343 0002286 102.0743 258.0647 13.20773026191056
ONEWEB-0383             
1 49309U 21090AG  25229.85437875  .00000138  00000+0  33828-3 0  9992
2 49309  87.9086 350.0544 0002010  96.7796 263.3563 13.14503188189036
ONEWEB-0384             
1 49310U 21090AH  25229.73513870 -.00000011  00000+0 -57729-4 0  9990
2 49310  87.9311 334.9264 0002502 101.2646 258.8769 13.20787501191086
ONEWEB-0385             
1 49311U 21090AJ  25229.58034479  .00000005  00000+0 -19455-4 0  9993
2 49311  87.9291 334.9497 0002091 100.7323 259.4046 13.20771111191042
ONEWEB-0386             
1 49312U 21090AK  25229.52194606  .00000030  00000+0  42408-4 0  9998
2 49312  87.9300 334.9343 0002214 100.0201 260.1182 13.20770860189732
